0 COSMOS 886 DEB *
1 09798U 76126Y   13281.77451514 -.00000066  00000-0  15677-4 0   594
2 09798 065.7579 025.1390 0129317 175.1209 265.9145 13.60694053817906
0 COSMOS 886 DEB *
1 09798U 76126Y   13283.59550551  .00000100  00000-0  12501-3 0   610
2 09798 065.7572 020.7393 0129676 174.2791 186.0240 13.60694126818155
0 COSMOS 886 DEB *
1 09798U 76126Y   13283.83404061 -.00000055  00000-0  28764-4 0   609
2 09798 065.7580 020.1573 0129136 174.1634 274.4941 13.60694397818187
0 COSMOS 886 DEB *
1 09798U 76126Y   13285.89792973 -.00000015  00000-0  79132-4 0   611
2 09798 065.7579 015.1648 0128967 173.1914 304.4650 13.60694536818460
0 COSMOS 886 DEB *
1 09798U 76126Y   13288.38779935  .00000025  00000-0  12880-3 0   628
2 09798 065.7575 009.1422 0128754 172.0366 261.0873 13.60694978818805
0 COSMOS 886 DEB *
1 09798U 76126Y   13290.52443803  .00000021  00000-0  12411-3 0   636
2 09798 065.7572 003.9739 0128548 171.0329 287.4244 13.60695597819098
0 COSMOS 886 DEB *
1 09798U 76126Y   13290.57791469  .00000092  00000-0  11575-3 0   644
2 09798 065.7575 003.8497 0129062 171.0256 189.3606 13.60695455819109
0 COSMOS 886 DEB *
1 09798U 76126Y   13292.58441640  .00000021  00000-0  12383-3 0   640
2 09798 065.7569 358.9908 0128364 170.0725 298.2379 13.60696231819376
0 COSMOS 886 DEB *
1 09798U 76126Y   13295.15382321  .00000007  00000-0  10643-3 0   658
2 09798 065.7567 352.7753 0128161 168.8594 284.5091 13.60696854819727
